CCSDS_OMM_VERS = 2.0
CREATION_DATE  = 
ORIGINATOR     = 

OBJECT_NAME    = COSMOS 2151
OBJECT_ID      = 1991-042A
CENTER_NAME    = EARTH
REF_FRAME      = TEME
TIME_SYSTEM    = UTC
MEAN_ELEMENT_THEORY = SGP/SGP4

EPOCH          = 2025-11-23T17:45:48.796704
MEAN_MOTION    = 14.99587027
ECCENTRICITY   = .0013961
INCLINATION    = 82.4975
RA_OF_ASC_NODE = 185.8101
ARG_OF_PERICENTER = 60.0685
MEAN_ANOMALY   = 300.1923

EPHEMERIS_TYPE = 0
CLASSIFICATION_TYPE = U
NORAD_CAT_ID   = 21422
ELEMENT_SET_NO = 999
REV_AT_EPOCH   = 84731
BSTAR          = .13759E-3
MEAN_MOTION_DOT = .1722E-4
MEAN_MOTION_DDOT = 0

CCSDS_OMM_VERS = 2.0
CREATION_DATE  = 
ORIGINATOR     = 

OBJECT_NAME    = SL-14 R/B
OBJECT_ID      = 1991-042B
CENTER_NAME    = EARTH
REF_FRAME      = TEME
TIME_SYSTEM    = UTC
MEAN_ELEMENT_THEORY = SGP/SGP4

EPOCH          = 2025-11-23T11:14:16.482048
MEAN_MOTION    = 14.81712673
ECCENTRICITY   = .0015836
INCLINATION    = 82.4914
RA_OF_ASC_NODE = 319.7973
ARG_OF_PERICENTER = 226.5929
MEAN_ANOMALY   = 133.3967

EPHEMERIS_TYPE = 0
CLASSIFICATION_TYPE = U
NORAD_CAT_ID   = 21423
ELEMENT_SET_NO = 999
REV_AT_EPOCH   = 83734
BSTAR          = .56199E-4
MEAN_MOTION_DOT = .467E-5
MEAN_MOTION_DDOT = 0

CCSDS_OMM_VERS = 2.0
CREATION_DATE  = 
ORIGINATOR     = 

OBJECT_NAME    = ERS-1
OBJECT_ID      = 1991-050A
CENTER_NAME    = EARTH
REF_FRAME      = TEME
TIME_SYSTEM    = UTC
MEAN_ELEMENT_THEORY = SGP/SGP4

EPOCH          = 2025-11-23T13:12:53.409888
MEAN_MOTION    = 14.39343278
ECCENTRICITY   = .0032472
INCLINATION    = 98.7915
RA_OF_ASC_NODE = 338.1248
ARG_OF_PERICENTER = 155.4868
MEAN_ANOMALY   = 204.7871

EPHEMERIS_TYPE = 0
CLASSIFICATION_TYPE = U
NORAD_CAT_ID   = 21574
ELEMENT_SET_NO = 999
REV_AT_EPOCH   = 80046
BSTAR          = .11904E-3
MEAN_MOTION_DOT = .326E-5
MEAN_MOTION_DDOT = 0

CCSDS_OMM_VERS = 2.0
CREATION_DATE  = 
ORIGINATOR     = 

OBJECT_NAME    = ARIANE 40 R/B
OBJECT_ID      = 1991-050F
CENTER_NAME    = EARTH
REF_FRAME      = TEME
TIME_SYSTEM    = UTC
MEAN_ELEMENT_THEORY = SGP/SGP4

EPOCH          = 2025-11-23T17:09:54.773856
MEAN_MOTION    = 14.42789857
ECCENTRICITY   = .0003903
INCLINATION    = 98.2190
RA_OF_ASC_NODE = 18.8301
ARG_OF_PERICENTER = 51.9574
MEAN_ANOMALY   = 308.1968

EPHEMERIS_TYPE = 0
CLASSIFICATION_TYPE = U
NORAD_CAT_ID   = 21610
ELEMENT_SET_NO = 999
REV_AT_EPOCH   = 80371
BSTAR          = .1219E-3
MEAN_MOTION_DOT = .365E-5
MEAN_MOTION_DDOT = 0

CCSDS_OMM_VERS = 2.0
CREATION_DATE  = 
ORIGINATOR     = 

OBJECT_NAME    = INTERCOSMOS 25
OBJECT_ID      = 1991-086A
CENTER_NAME    = EARTH
REF_FRAME      = TEME
TIME_SYSTEM    = UTC
MEAN_ELEMENT_THEORY = SGP/SGP4

EPOCH          = 2025-11-23T15:30:29.966688
MEAN_MOTION    = 12.11636442
ECCENTRICITY   = .1487638
INCLINATION    = 82.6071
RA_OF_ASC_NODE = 14.1203
ARG_OF_PERICENTER = 345.5679
MEAN_ANOMALY   = 10.6894

EPHEMERIS_TYPE = 0
CLASSIFICATION_TYPE = U
NORAD_CAT_ID   = 21819
ELEMENT_SET_NO = 999
REV_AT_EPOCH   = 48384
BSTAR          = .20635E-3
MEAN_MOTION_DOT = .1054E-4
MEAN_MOTION_DDOT = 0

CCSDS_OMM_VERS = 2.0
CREATION_DATE  = 
ORIGINATOR     = 

OBJECT_NAME    = SL-8 R/B
OBJECT_ID      = 1992-008B
CENTER_NAME    = EARTH
REF_FRAME      = TEME
TIME_SYSTEM    = UTC
MEAN_ELEMENT_THEORY = SGP/SGP4

EPOCH          = 2025-11-23T13:33:16.535808
MEAN_MOTION    = 13.75952858
ECCENTRICITY   = .0036048
INCLINATION    = 82.9269
RA_OF_ASC_NODE = 346.7105
ARG_OF_PERICENTER = 71.9958
MEAN_ANOMALY   = 39.6671

EPHEMERIS_TYPE = 0
CLASSIFICATION_TYPE = U
NORAD_CAT_ID   = 21876
ELEMENT_SET_NO = 999
REV_AT_EPOCH   = 69482
BSTAR          = .1114E-3
MEAN_MOTION_DOT = .124E-5
MEAN_MOTION_DDOT = 0

CCSDS_OMM_VERS = 2.0
CREATION_DATE  = 
ORIGINATOR     = 

OBJECT_NAME    = SL-8 R/B
OBJECT_ID      = 1992-020B
CENTER_NAME    = EARTH
REF_FRAME      = TEME
TIME_SYSTEM    = UTC
MEAN_ELEMENT_THEORY = SGP/SGP4

EPOCH          = 2025-11-23T18:45:32.483808
MEAN_MOTION    = 13.75523419
ECCENTRICITY   = .0027777
INCLINATION    = 82.9316
RA_OF_ASC_NODE = 232.3937
ARG_OF_PERICENTER = 232.2149
MEAN_ANOMALY   = 182.2389

EPHEMERIS_TYPE = 0
CLASSIFICATION_TYPE = U
NORAD_CAT_ID   = 21938
ELEMENT_SET_NO = 999
REV_AT_EPOCH   = 68657
BSTAR          = .67263E-4
MEAN_MOTION_DOT = .8E-6
MEAN_MOTION_DDOT = 0

CCSDS_OMM_VERS = 2.0
CREATION_DATE  = 
ORIGINATOR     = 

OBJECT_NAME    = USA 81
OBJECT_ID      = 1992-023A
CENTER_NAME    = EARTH
REF_FRAME      = TEME
TIME_SYSTEM    = UTC
MEAN_ELEMENT_THEORY = SGP/SGP4

EPOCH          = 2025-11-23T14:42:39.905568
MEAN_MOTION    = 14.32317086
ECCENTRICITY   = .0002317
INCLINATION    = 85.0098
RA_OF_ASC_NODE = 192.6056
ARG_OF_PERICENTER = 67.5762
MEAN_ANOMALY   = 292.5676

EPHEMERIS_TYPE = 0
CLASSIFICATION_TYPE = U
NORAD_CAT_ID   = 21949
ELEMENT_SET_NO = 999
REV_AT_EPOCH   = 7960
BSTAR          = .66088E-4
MEAN_MOTION_DOT = .198E-5
MEAN_MOTION_DDOT = 0

CCSDS_OMM_VERS = 2.0
CREATION_DATE  = 
ORIGINATOR     = 

OBJECT_NAME    = COSMOS 2219
OBJECT_ID      = 1992-076A
CENTER_NAME    = EARTH
REF_FRAME      = TEME
TIME_SYSTEM    = UTC
MEAN_ELEMENT_THEORY = SGP/SGP4

EPOCH          = 2025-11-23T18:23:44.473344
MEAN_MOTION    = 14.14066878
ECCENTRICITY   = .001841
INCLINATION    = 71.0607
RA_OF_ASC_NODE = 239.4921
ARG_OF_PERICENTER = 353.8180
MEAN_ANOMALY   = 6.2712

EPHEMERIS_TYPE = 0
CLASSIFICATION_TYPE = U
NORAD_CAT_ID   = 22219
ELEMENT_SET_NO = 999
REV_AT_EPOCH   = 70340
BSTAR          = -.64308E-4
MEAN_MOTION_DOT = -.17E-5
MEAN_MOTION_DDOT = 0

CCSDS_OMM_VERS = 2.0
CREATION_DATE  = 
ORIGINATOR     = 

OBJECT_NAME    = SL-16 R/B
OBJECT_ID      = 1992-076B
CENTER_NAME    = EARTH
REF_FRAME      = TEME
TIME_SYSTEM    = UTC
MEAN_ELEMENT_THEORY = SGP/SGP4

EPOCH          = 2025-11-23T15:55:41.417184
MEAN_MOTION    = 14.16836225
ECCENTRICITY   = .0015124
INCLINATION    = 71.0011
RA_OF_ASC_NODE = 51.7139
ARG_OF_PERICENTER = 258.8241
MEAN_ANOMALY   = 206.5540

EPHEMERIS_TYPE = 0
CLASSIFICATION_TYPE = U
NORAD_CAT_ID   = 22220
ELEMENT_SET_NO = 999
REV_AT_EPOCH   = 70681
BSTAR          = .11163E-3
MEAN_MOTION_DOT = .176E-5
MEAN_MOTION_DDOT = 0

CCSDS_OMM_VERS = 2.0
CREATION_DATE  = 
ORIGINATOR     = 

OBJECT_NAME    = COSMOS 2221
OBJECT_ID      = 1992-080A
CENTER_NAME    = EARTH
REF_FRAME      = TEME
TIME_SYSTEM    = UTC
MEAN_ELEMENT_THEORY = SGP/SGP4

EPOCH          = 2025-11-23T14:49:18.809184
MEAN_MOTION    = 14.95654770
ECCENTRICITY   = .0014545
INCLINATION    = 82.5057
RA_OF_ASC_NODE = 20.6260
ARG_OF_PERICENTER = 182.9001
MEAN_ANOMALY   = 177.2139

EPHEMERIS_TYPE = 0
CLASSIFICATION_TYPE = U
NORAD_CAT_ID   = 22236
ELEMENT_SET_NO = 999
REV_AT_EPOCH   = 76493
BSTAR          = .17461E-3
MEAN_MOTION_DOT = .197E-4
MEAN_MOTION_DDOT = 0

CCSDS_OMM_VERS = 2.0
CREATION_DATE  = 
ORIGINATOR     = 

OBJECT_NAME    = SL-16 R/B
OBJECT_ID      = 1992-093B
CENTER_NAME    = EARTH
REF_FRAME      = TEME
TIME_SYSTEM    = UTC
MEAN_ELEMENT_THEORY = SGP/SGP4

EPOCH          = 2025-11-23T17:36:17.493120
MEAN_MOTION    = 14.15427909
ECCENTRICITY   = .0002099
INCLINATION    = 71.0217
RA_OF_ASC_NODE = 226.6916
ARG_OF_PERICENTER = 128.5649
MEAN_ANOMALY   = 231.5662

EPHEMERIS_TYPE = 0
CLASSIFICATION_TYPE = U
NORAD_CAT_ID   = 22285
ELEMENT_SET_NO = 999
REV_AT_EPOCH   = 69816
BSTAR          = -.46896E-4
MEAN_MOTION_DOT = -.139E-5
MEAN_MOTION_DDOT = 0

