COSMOS 2151             
1 21422U 91042A   25327.74014811  .00001722  00000+0  13759-3 0  9991
2 21422  82.4975 185.8101 0013961  60.0685 300.1923 14.99587027847310
SL-14 R/B               
1 21423U 91042B   25327.46824632  .00000467  00000+0  56199-4 0  9992
2 21423  82.4914 319.7973 0015836 226.5929 133.3967 14.81712673837346
ERS-1                   
1 21574U 91050A   25327.55061817  .00000326  00000+0  11904-3 0  9994
2 21574  98.7915 338.1248 0032472 155.4868 204.7871 14.39343278800465
ARIANE 40 R/B           
1 21610U 91050F   25327.71521729  .00000365  00000+0  12190-3 0  9997
2 21610  98.2190  18.8301 0003903  51.9574 308.1968 14.42789857803717
INTERCOSMOS 25          
1 21819U 91086A   25327.64618017  .00001054  00000+0  20635-3 0  9995
2 21819  82.6071  14.1203 1487638 345.5679  10.6894 12.11636442483849
SL-8 R/B                
1 21876U 92008B   25327.56477472  .00000124  00000+0  11140-3 0  9990
2 21876  82.9269 346.7105 0036048  71.9958  39.6671 13.75952858694822
SL-8 R/B                
1 21938U 92020B   25327.78162597  .00000080  00000+0  67263-4 0  9995
2 21938  82.9316 232.3937 0027777 232.2149 182.2389 13.75523419686571
USA 81                  
1 21949U 92023A   25327.61296187  .00000198  00000+0  66088-4 0  9999
2 21949  85.0098 192.6056 0002317  67.5762 292.5676 14.32317086 79606
COSMOS 2219             
1 22219U 92076A   25327.76648696 -.00000170  00000+0 -64308-4 0  9995
2 22219  71.0607 239.4921 0018410 353.8180   6.2712 14.14066878703408
SL-16 R/B               
1 22220U 92076B   25327.66367381  .00000176  00000+0  11163-3 0  9999
2 22220  71.0011  51.7139 0015124 258.8241 206.5540 14.16836225706811
COSMOS 2221             
1 22236U 92080A   25327.61757881  .00001970  00000+0  17461-3 0  9994
2 22236  82.5057  20.6260 0014545 182.9001 177.2139 14.95654770764937
SL-16 R/B               
1 22285U 92093B   25327.73353580 -.00000139  00000+0 -46896-4 0  9996
2 22285  71.0217 226.6916 0002099 128.5649 231.5662 14.15427909698163
